IRIDIUM 126             
1 42809U 17039G   25150.25901557  .00000045  00000+0  89268-5 0  9996
2 42809  86.3977 153.7116 0002349  95.9102 264.2362 14.34217923415071
IRIDIUM 124             
1 42810U 17039H   25150.20750159  .00000426  00000+0  12066-3 0  9996
2 42810  86.4478  90.4861 0002613  82.6261 277.5237 14.43279037419871
IRIDIUM 128             
1 42811U 17039J   25150.17998564  .00000052  00000+0  11359-4 0  9997
2 42811  86.4002 185.2114 0002690  86.8205 273.3299 14.34218185415086
IRIDIUM 121             
1 42812U 17039K   25150.06873569  .00000062  00000+0  15112-4 0  9995
2 42812  86.3977 153.8160 0002360  86.1374 274.0091 14.34217759415032
IRIDIUM 133             
1 42955U 17061A   25150.14192967  .00000006  00000+0 -49746-5 0  9993
2 42955  86.4008 185.3350 0002305  93.4577 266.6883 14.34217761399874
IRIDIUM 100             
1 42956U 17061B   25150.13560170  .00000279  00000+0  92437-4 0  9993
2 42956  86.4001 185.2656 0002553  94.4915 265.6573 14.34216937399899
IRIDIUM 122             
1 42957U 17061C   25150.10387337  .00000028  00000+0  30755-5 0  9991
2 42957  86.4006 185.2777 0002308  94.4502 265.6957 14.34218133399873
IRIDIUM 129             
1 42958U 17061D   25150.19901190  .00000013  00000+0 -23168-5 0  9995
2 42958  86.4007 185.3008 0001866  98.3769 261.7639 14.34217742399902
